[
    {
        "Altitude(m)": 707458.0574015841,
        "Argument of Periapsis(deg)": 0.009112096949301655,
        "Eccentricity": 0.0,
        "Inclination(deg)": 45.0,
        "Latitude(deg)": -17.93812474557391,
        "Longitude(deg)": -106.8299201061357,
        "Mean Anomaly(deg)": -154.40982668201536,
        "RAAN(deg)": 154.99139844683344,
        "Satellite Name": "Constellation 1 694",
        "Satellite Number": 694,
        "Semi-Major Axis(m)": 7083131.272910544,
        "Time(s)": 152
    },
    {
        "Altitude(m)": 707470.7020601255,
        "Argument of Periapsis(deg)": 0.009172044955547059,
        "Eccentricity": 0.0,
        "Inclination(deg)": 45.0,
        "Latitude(deg)": -17.978958041101087,
        "Longitude(deg)": -106.78674278306941,
        "Mean Anomaly(deg)": -154.34912554176543,
        "RAAN(deg)": 154.9913418576679,
        "Satellite Name": "Constellation 1 694",
        "Satellite Number": 694,
        "Semi-Major Axis(m)": 7083131.272910544,
        "Time(s)": 153
    },
    {
        "Altitude(m)": 707483.3569154866,
        "Argument of Periapsis(deg)": 0.009231992961792466,
        "Eccentricity": 0.0,
        "Inclination(deg)": 45.0,
        "Latitude(deg)": -18.019779540851257,
        "Longitude(deg)": -106.74354384279201,
        "Mean Anomaly(deg)": -154.28842440151558,
        "RAAN(deg)": 154.99128526850228,
        "Satellite Name": "Constellation 1 694",
        "Satellite Number": 694,
        "Semi-Major Axis(m)": 7083131.272910544,
        "Time(s)": 154
    },
    {
        "Altitude(m)": 707496.0219276038,
        "Argument of Periapsis(deg)": 0.009291940968037872,
        "Eccentricity": 0.0,
        "Inclination(deg)": 45.0,
        "Latitude(deg)": -18.060589211408878,
        "Longitude(deg)": -106.70032322892087,
        "Mean Anomaly(deg)": -154.22772326126565,
        "RAAN(deg)": 154.99122867933673,
        "Satellite Name": "Constellation 1 694",
        "Satellite Number": 694,
        "Semi-Major Axis(m)": 7083131.272910544,
        "Time(s)": 155
    },
    {
        "Altitude(m)": 707508.6970563361,
        "Argument of Periapsis(deg)": 0.009351888974283276,
        "Eccentricity": 0.0,
        "Inclination(deg)": 45.0,
        "Latitude(deg)": -18.101387019315972,
        "Longitude(deg)": -106.65708105314089,
        "Mean Anomaly(deg)": -154.16702212101578,
        "RAAN(deg)": 154.99117209017115,
        "Satellite Name": "Constellation 1 694",
        "Satellite Number": 694,
        "Semi-Major Axis(m)": 7083131.272910544,
        "Time(s)": 156
    },
    {
        "Altitude(m)": 707521.3822614952,
        "Argument of Periapsis(deg)": 0.00941183698052868,
        "Eccentricity": 0.0,
        "Inclination(deg)": 45.0,
        "Latitude(deg)": -18.14217293107271,
        "Longitude(deg)": -106.61381692281572,
        "Mean Anomaly(deg)": -154.10632098076587,
        "RAAN(deg)": 154.9911155010056,
        "Satellite Name": "Constellation 1 694",
        "Satellite Number": 694,
        "Semi-Major Axis(m)": 7083131.272910544,
        "Time(s)": 157
    },
    {
        "Altitude(m)": 707534.0775028468,
        "Argument of Periapsis(deg)": 0.009471784986774088,
        "Eccentricity": 0.0,
        "Inclination(deg)": 45.0,
        "Latitude(deg)": -18.182946913136465,
        "Longitude(deg)": -106.57053094957064,
        "Mean Anomaly(deg)": -154.04561984051597,
        "RAAN(deg)": 154.99105891184004,
        "Satellite Name": "Constellation 1 694",
        "Satellite Number": 694,
        "Semi-Major Axis(m)": 7083131.272910544,
        "Time(s)": 158
    },
    {
        "Altitude(m)": 707546.7827400985,
        "Argument of Periapsis(deg)": 0.009531732993019492,
        "Eccentricity": 0.0,
        "Inclination(deg)": 45.0,
        "Latitude(deg)": -18.223708931922143,
        "Longitude(deg)": -106.52722307690419,
        "Mean Anomaly(deg)": -153.98491870026604,
        "RAAN(deg)": 154.99100232267443,
        "Satellite Name": "Constellation 1 694",
        "Satellite Number": 694,
        "Semi-Major Axis(m)": 7083131.272910544,
        "Time(s)": 159
    },
    {
        "Altitude(m)": 707559.4979329036,
        "Argument of Periapsis(deg)": 0.009591680999264898,
        "Eccentricity": 0.0,
        "Inclination(deg)": 45.0,
        "Latitude(deg)": -18.264458953802052,
        "Longitude(deg)": -106.48389324828504,
        "Mean Anomaly(deg)": -153.9242175600162,
        "RAAN(deg)": 154.99094573350888,
        "Satellite Name": "Constellation 1 694",
        "Satellite Number": 694,
        "Semi-Major Axis(m)": 7083131.272910544,
        "Time(s)": 160
    },
    {
        "Altitude(m)": 707572.2230408655,
        "Argument of Periapsis(deg)": 0.009651629005510304,
        "Eccentricity": 0.0,
        "Inclination(deg)": 45.0,
        "Latitude(deg)": -18.305196945105852,
        "Longitude(deg)": -106.44054140715221,
        "Mean Anomaly(deg)": -153.86351641976626,
        "RAAN(deg)": 154.99088914434333,
        "Satellite Name": "Constellation 1 694",
        "Satellite Number": 694,
        "Semi-Major Axis(m)": 7083131.272910544,
        "Time(s)": 161
    },
    {
        "Altitude(m)": 707584.9580235282,
        "Argument of Periapsis(deg)": 0.00971157701175571,
        "Eccentricity": 0.0,
        "Inclination(deg)": 45.0,
        "Latitude(deg)": -18.345922872120095,
        "Longitude(deg)": -106.39716749691533,
        "Mean Anomaly(deg)": -153.80281527951638,
        "RAAN(deg)": 154.99083255517775,
        "Satellite Name": "Constellation 1 694",
        "Satellite Number": 694,
        "Semi-Major Axis(m)": 7083131.272910544,
        "Time(s)": 162
    },
    {
        "Altitude(m)": 707597.7028403885,
        "Argument of Periapsis(deg)": 0.009771525018001118,
        "Eccentricity": 0.0,
        "Inclination(deg)": 45.0,
        "Latitude(deg)": -18.386636701088527,
        "Longitude(deg)": -106.35377162905118,
        "Mean Anomaly(deg)": -153.74211413926645,
        "RAAN(deg)": 154.99077596601217,
        "Satellite Name": "Constellation 1 694",
        "Satellite Number": 694,
        "Semi-Major Axis(m)": 7083131.272910544,
        "Time(s)": 163
    },
    {
        "Altitude(m)": 707610.4574508901,
        "Argument of Periapsis(deg)": 0.00983147302424652,
        "Eccentricity": 0.0,
        "Inclination(deg)": 45.0,
        "Latitude(deg)": -18.427338398211905,
        "Longitude(deg)": -106.31035341071592,
        "Mean Anomaly(deg)": -153.68141299901654,
        "RAAN(deg)": 154.99071937684658,
        "Satellite Name": "Constellation 1 694",
        "Satellite Number": 694,
        "Semi-Major Axis(m)": 7083131.272910544,
        "Time(s)": 164
    },
    {
        "Altitude(m)": 707623.221814425,
        "Argument of Periapsis(deg)": 0.009891421030491928,
        "Eccentricity": 0.0,
        "Inclination(deg)": 45.0,
        "Latitude(deg)": -18.46802792964747,
        "Longitude(deg)": -106.26691295332746,
        "Mean Anomaly(deg)": -153.62071185876667,
        "RAAN(deg)": 154.99066278768103,
        "Satellite Name": "Constellation 1 694",
        "Satellite Number": 694,
        "Semi-Major Axis(m)": 7083131.272910544,
        "Time(s)": 165
    },
    {
        "Altitude(m)": 707635.9958903309,
        "Argument of Periapsis(deg)": 0.009951369036737332,
        "Eccentricity": 0.0,
        "Inclination(deg)": 45.0,
        "Latitude(deg)": -18.508705261509476,
        "Longitude(deg)": -106.22345020017688,
        "Mean Anomaly(deg)": -153.56001071851674,
        "RAAN(deg)": 154.99060619851548,
        "Satellite Name": "Constellation 1 694",
        "Satellite Number": 694,
        "Semi-Major Axis(m)": 7083131.272910544,
        "Time(s)": 166
    },
    {
        "Altitude(m)": 707648.7796378912,
        "Argument of Periapsis(deg)": 0.010011317042982738,
        "Eccentricity": 0.0,
        "Inclination(deg)": 45.0,
        "Latitude(deg)": -18.549370359868472,
        "Longitude(deg)": -106.17996509452614,
        "Mean Anomaly(deg)": -153.49930957826686,
        "RAAN(deg)": 154.9905496093499,
        "Satellite Name": "Constellation 1 694",
        "Satellite Number": 694,
        "Semi-Major Axis(m)": 7083131.272910544,
        "Time(s)": 167
    },
    {
        "Altitude(m)": 707661.5730163475,
        "Argument of Periapsis(deg)": 0.010071265049228144,
        "Eccentricity": 0.0,
        "Inclination(deg)": 45.0,
        "Latitude(deg)": -18.590023190751527,
        "Longitude(deg)": -106.13645757960752,
        "Mean Anomaly(deg)": -153.43860843801698,
        "RAAN(deg)": 154.99049302018432,
        "Satellite Name": "Constellation 1 694",
        "Satellite Number": 694,
        "Semi-Major Axis(m)": 7083131.272910544,
        "Time(s)": 168
    },
    {
        "Altitude(m)": 707674.3759848815,
        "Argument of Periapsis(deg)": 0.01013121305547355,
        "Eccentricity": 0.0,
        "Inclination(deg)": 45.0,
        "Latitude(deg)": -18.63066372014214,
        "Longitude(deg)": -106.09292759862399,
        "Mean Anomaly(deg)": -153.37790729776705,
        "RAAN(deg)": 154.99043643101876,
        "Satellite Name": "Constellation 1 694",
        "Satellite Number": 694,
        "Semi-Major Axis(m)": 7083131.272910544,
        "Time(s)": 169
    },
    {
        "Altitude(m)": 707687.1885026165,
        "Argument of Periapsis(deg)": 0.010191161061718957,
        "Eccentricity": 0.0,
        "Inclination(deg)": 45.0,
        "Latitude(deg)": -18.671291913979893,
        "Longitude(deg)": -106.04937509474934,
        "Mean Anomaly(deg)": -153.3172061575172,
        "RAAN(deg)": 154.99037984185318,
        "Satellite Name": "Constellation 1 694",
        "Satellite Number": 694,
        "Semi-Major Axis(m)": 7083131.272910544,
        "Time(s)": 170
    }
]